[{"Id":"2082603540","ArrayIndex":0,"Latitude":50.0458,"Longitude":22.0134867,"dict":{"addr:street":"Lucjana Siemieńskiego","addr:housenumber":"14"},"IsMarked":false},{"Id":"2098145296","ArrayIndex":1,"Latitude":50.0363738,"Longitude":22.0071385,"dict":{"addr:street":"Szpitalna","addr:housenumber":"5"},"IsMarked":false},{"Id":"2074822373","ArrayIndex":2,"Latitude":50.0192468,"Longitude":22.0036184,"dict":{"addr:street":"Eugeniusza Kwiatkowskiego","addr:housenumber":"2"},"IsMarked":false},{"Id":"2527252735","ArrayIndex":3,"Latitude":50.0433107,"Longitude":21.9728396,"dict":{"addr:street":"Ignacego Solarza","addr:housenumber":"19a"},"IsMarked":false},{"Id":"2075058173","ArrayIndex":4,"Latitude":50.0198624,"Longitude":21.9938385,"dict":{"addr:street":"Aleja Powstańców Warszawy","addr:housenumber":"20"},"IsMarked":false},{"Id":"2082640603","ArrayIndex":5,"Latitude":50.0358254,"Longitude":22.0002235,"dict":{"addr:street":"Jagiellońska","addr:housenumber":"5"},"IsMarked":false},{"Id":"2338527160","ArrayIndex":6,"Latitude":50.0624795,"Longitude":21.9814094,"dict":{"addr:street":"Obrońców Poczty Gdańskiej","addr:housenumber":"30"},"IsMarked":false},{"Id":"2348111520","ArrayIndex":7,"Latitude":50.0530241,"Longitude":21.9776356,"dict":{"addr:street":"Ofiar Katynia","addr:housenumber":"15"},"IsMarked":false},{"Id":"2286665418","ArrayIndex":8,"Latitude":50.0338484,"Longitude":22.0139905,"dict":{"addr:street":"Wierzbowa","addr:housenumber":"27"},"IsMarked":false},{"Id":"2079279199","ArrayIndex":9,"Latitude":50.0414546,"Longitude":22.0036184,"dict":{"addr:street":"Aleja Józefa Piłsudskiego","addr:housenumber":"34"},"IsMarked":false},{"Id":"2121335474","ArrayIndex":10,"Latitude":50.0356481,"Longitude":21.9994853,"dict":{"addr:street":"Zygmuntowska","addr:housenumber":"8"},"IsMarked":false},{"Id":"4342162926","ArrayIndex":11,"Latitude":50.0292361,"Longitude":22.0413479,"dict":{"addr:street":"Witolda","addr:housenumber":"8"},"IsMarked":false},{"Id":"2083312229","ArrayIndex":12,"Latitude":50.0228776,"Longitude":22.0181232,"dict":{"addr:street":"Aleja Tadeusza Rejtana","addr:housenumber":"51"},"IsMarked":false},{"Id":"2116216722","ArrayIndex":13,"Latitude":50.0196343,"Longitude":21.9937213,"dict":{"addr:street":"Hetmańska","addr:housenumber":"56"},"IsMarked":false},{"Id":"2083312389","ArrayIndex":14,"Latitude":50.0249083,"Longitude":22.0173522,"dict":{"addr:street":"Aleja Tadeusza Rejtana","addr:housenumber":"49"},"IsMarked":false},{"Id":"2087093029","ArrayIndex":15,"Latitude":50.0013455,"Longitude":22.0164428,"dict":{"addr:street":"Strażacka","addr:housenumber":"27"},"IsMarked":false},{"Id":"2158444531","ArrayIndex":16,"Latitude":50.0425746,"Longitude":21.9933493,"dict":{"addr:street":"Jana Kasprowicza","addr:housenumber":"2"},"IsMarked":false}]