[{"Id":"3548099190","ArrayIndex":0,"Latitude":50.0627904,"Longitude":21.9999956,"dict":{"addr:street":"Skrajna","addr:housenumber":"12"},"IsMarked":false},{"Id":"2121116358","ArrayIndex":1,"Latitude":50.0431959,"Longitude":22.0174241,"dict":{"addr:street":"Jana Styki","addr:housenumber":"15"},"IsMarked":false},{"Id":"2581235948","ArrayIndex":2,"Latitude":50.0502339,"Longitude":22.0163771,"dict":{"addr:housenumber":"1a","addr:street":"Ciepłownicza"},"IsMarked":false},{"Id":"1998773662","ArrayIndex":3,"Latitude":50.0383477,"Longitude":22.0163511,"dict":{"addr:street":"Aleja Tadeusza Rejtana","addr:housenumber":"2"},"IsMarked":false},{"Id":"2098296673","ArrayIndex":4,"Latitude":50.0376931,"Longitude":22.013127,"dict":{"addr:street":"8 Marca","addr:housenumber":"6"},"IsMarked":false},{"Id":"2278751418","ArrayIndex":5,"Latitude":50.0314682,"Longitude":22.0084862,"dict":{"addr:street":"Podwisłocze","addr:housenumber":"33"},"IsMarked":false},{"Id":"4825822873","ArrayIndex":6,"Latitude":50.0313512,"Longitude":22.0056129,"dict":{"addr:street":"Fryderyka Chopina","addr:housenumber":"35a"},"IsMarked":false},{"Id":"2087110375","ArrayIndex":7,"Latitude":50.0024487,"Longitude":21.9911709,"dict":{"addr:street":"Eugeniusza Kwiatkowskiego","addr:housenumber":"52b"},"IsMarked":false},{"Id":"2086673504","ArrayIndex":8,"Latitude":49.9988846,"Longitude":21.9771748,"dict":{"addr:street":"Jarowa","addr:housenumber":"206"},"IsMarked":false},{"Id":"2708829813","ArrayIndex":9,"Latitude":50.0454156,"Longitude":22.0217312,"dict":{"addr:street":"Konfederatów Barskich","addr:housenumber":"63"},"IsMarked":false}]