[{"Id":"3554081392","ArrayIndex":0,"Latitude":50.0227707,"Longitude":22.0475825,"dict":{"addr:street":"Świętego Rocha","addr:housenumber":"24"},"IsMarked":false},{"Id":"3553927486","ArrayIndex":1,"Latitude":50.0275564,"Longitude":22.0454104,"dict":{"addr:street":"Ignacego Paderewskiego","addr:housenumber":"69"},"IsMarked":false},{"Id":"3559544116","ArrayIndex":2,"Latitude":50.0542773,"Longitude":21.9741078,"dict":{"addr:street":"Stanisława Mikołajczyka","addr:housenumber":"31"},"IsMarked":false},{"Id":"2087143296","ArrayIndex":3,"Latitude":50.0029545,"Longitude":22.008127,"dict":{"addr:street":"Miła","addr:housenumber":"9b"},"IsMarked":false},{"Id":"2320557692","ArrayIndex":4,"Latitude":50.0203377,"Longitude":22.0233339,"dict":{"addr:street":"Ossolińskich","addr:housenumber":"61"},"IsMarked":false},{"Id":"3553340315","ArrayIndex":5,"Latitude":50.0453452,"Longitude":22.0295594,"dict":{"addr:street":"Konfederatów Barskich","addr:housenumber":"40"},"IsMarked":false},{"Id":"2775282650","ArrayIndex":6,"Latitude":50.011786,"Longitude":22.0236869,"dict":{"addr:housenumber":"7c","addr:street":"Krokusowa"},"IsMarked":false},{"Id":"3553718827","ArrayIndex":7,"Latitude":50.0330626,"Longitude":22.0460172,"dict":{"addr:street":"Zygmunta I Starego","addr:housenumber":"12A/3"},"IsMarked":false},{"Id":"2515978491","ArrayIndex":8,"Latitude":50.0519798,"Longitude":21.9586604,"dict":{"addr:street":"Ustrzycka","addr:housenumber":"114a"},"IsMarked":false},{"Id":"2129690907","ArrayIndex":9,"Latitude":50.0384782,"Longitude":21.9814537,"dict":{"addr:street":"Stanisława Witkacego","addr:housenumber":"1"},"IsMarked":false},{"Id":"3553337711","ArrayIndex":10,"Latitude":50.0412926,"Longitude":22.049698,"dict":{"addr:street":"Morgowa","addr:housenumber":"138"},"IsMarked":false},{"Id":"3553930407","ArrayIndex":11,"Latitude":50.0295485,"Longitude":22.0583928,"dict":{"addr:street":"Słocińska","addr:housenumber":"141"},"IsMarked":false},{"Id":"3546378534","ArrayIndex":12,"Latitude":50.050506,"Longitude":21.9354504,"dict":{"addr:street":"Dębicka","addr:housenumber":"288"},"IsMarked":false},{"Id":"2087241590","ArrayIndex":13,"Latitude":50.0036168,"Longitude":22.0237854,"dict":{"addr:street":"Sasanki","addr:housenumber":"55"},"IsMarked":false},{"Id":"2376494298","ArrayIndex":14,"Latitude":50.0310153,"Longitude":22.0223622,"dict":{"addr:street":"Miodowa","addr:housenumber":"47"},"IsMarked":false},{"Id":"2370855756","ArrayIndex":15,"Latitude":50.0278444,"Longitude":22.0295326,"dict":{"addr:street":"Mieszka I","addr:housenumber":"92"},"IsMarked":false},{"Id":"2087145877","ArrayIndex":16,"Latitude":50.0046696,"Longitude":22.0069869,"dict":{"addr:street":"Miła","addr:housenumber":"2a"},"IsMarked":false},{"Id":"2086683441","ArrayIndex":17,"Latitude":50.004371,"Longitude":21.9619028,"dict":{"addr:street":"Jarowa","addr:housenumber":"36"},"IsMarked":false},{"Id":"3553718094","ArrayIndex":18,"Latitude":50.0320137,"Longitude":22.048196,"dict":{"addr:street":"Władysława Warneńczyka","addr:housenumber":"81"},"IsMarked":false},{"Id":"3537638212","ArrayIndex":19,"Latitude":50.0554442,"Longitude":21.9695472,"dict":{"addr:street":"Tarnowska","addr:housenumber":"13"},"IsMarked":false},{"Id":"3537072301","ArrayIndex":20,"Latitude":50.0550697,"Longitude":21.9671156,"dict":{"addr:street":"Dębicka","addr:housenumber":"4a"},"IsMarked":false},{"Id":"2082637456","ArrayIndex":21,"Latitude":49.9879137,"Longitude":21.9952548,"dict":{"addr:street":"Jana Brzechwy","addr:housenumber":"12"},"IsMarked":false},{"Id":"2087043312","ArrayIndex":22,"Latitude":49.9894011,"Longitude":22.021074,"dict":{"addr:street":"Aleja generała Władysława Sikorskiego","addr:housenumber":"223"},"IsMarked":false},{"Id":"2119604742","ArrayIndex":23,"Latitude":50.0243582,"Longitude":22.0216571,"dict":{"addr:street":"Ignacego Paderewskiego","addr:housenumber":"3f"},"IsMarked":false},{"Id":"2126706042","ArrayIndex":24,"Latitude":50.0327842,"Longitude":21.9830599,"dict":{"addr:street":"Wiśniowa","addr:housenumber":"10"},"IsMarked":false},{"Id":"2087211430","ArrayIndex":25,"Latitude":49.9965736,"Longitude":22.0378525,"dict":{"addr:street":"Aleksandra Zelwerowicza","addr:housenumber":"70"},"IsMarked":false},{"Id":"2518054427","ArrayIndex":26,"Latitude":50.0276909,"Longitude":22.0611136,"dict":{"addr:housenumber":"88c","addr:street":"Słocińska"},"IsMarked":false},{"Id":"3554483641","ArrayIndex":27,"Latitude":50.011447,"Longitude":22.0312474,"dict":{"addr:street":"Forsycji","addr:housenumber":"8/1"},"IsMarked":false},{"Id":"2087059206","ArrayIndex":28,"Latitude":49.9918731,"Longitude":21.9938015,"dict":{"addr:street":"Kornela Makuszyńskiego","addr:housenumber":"6"},"IsMarked":false},{"Id":"3544873895","ArrayIndex":29,"Latitude":50.0163978,"Longitude":21.9705874,"dict":{"addr:street":"Zawiszy Czarnego","addr:housenumber":"14"},"IsMarked":false},{"Id":"2087143226","ArrayIndex":30,"Latitude":50.002802,"Longitude":22.0049822,"dict":{"addr:street":"Miła","addr:housenumber":"10"},"IsMarked":false},{"Id":"2527253456","ArrayIndex":31,"Latitude":50.0439972,"Longitude":21.9738511,"dict":{"addr:street":"Ignacego Solarza","addr:housenumber":"18/29"},"IsMarked":false},{"Id":"2525845018","ArrayIndex":32,"Latitude":50.0417281,"Longitude":21.9772637,"dict":{"addr:street":"Macieja Rataja","addr:housenumber":"16/2"},"IsMarked":false},{"Id":"3352027866","ArrayIndex":33,"Latitude":50.0629555,"Longitude":22.068773,"dict":{"addr:street":"Hrabiego Alfreda Potockiego","addr:housenumber":"131"},"IsMarked":false},{"Id":"2086667785","ArrayIndex":34,"Latitude":49.9939281,"Longitude":21.9586969,"dict":{"addr:street":"Zwięczycka","addr:housenumber":"8"},"IsMarked":false},{"Id":"3554572727","ArrayIndex":35,"Latitude":50.0093004,"Longitude":22.0666928,"dict":{"addr:street":"Świętego Marcina","addr:housenumber":"20A"},"IsMarked":false},{"Id":"3554463598","ArrayIndex":36,"Latitude":50.0090267,"Longitude":22.0199164,"dict":{"addr:street":"Zawilcowa","addr:housenumber":"1/6"},"IsMarked":false},{"Id":"3548098387","ArrayIndex":37,"Latitude":50.0621667,"Longitude":21.9955779,"dict":{"addr:street":"Długa","addr:housenumber":"7"},"IsMarked":false},{"Id":"3554480934","ArrayIndex":38,"Latitude":50.0075111,"Longitude":22.0299137,"dict":{"addr:street":"Irysowa","addr:housenumber":"6"},"IsMarked":false},{"Id":"2456209144","ArrayIndex":39,"Latitude":50.0480086,"Longitude":22.0085062,"dict":{"addr:street":"Jasna","addr:housenumber":"29"},"IsMarked":false}]