[{"Id":"308763936","ArrayIndex":0,"Latitude":52.226673,"Longitude":20.9959219,"dict":{"addr:street":"Aleje Jerozolimskie","addr:housenumber":"56C"},"IsMarked":false},{"Id":"4711722293","ArrayIndex":1,"Latitude":52.2333961,"Longitude":20.9866076,"dict":{"addr:street":"Grzybowska","addr:housenumber":"61"},"IsMarked":false},{"Id":"2025534301","ArrayIndex":2,"Latitude":52.2321979,"Longitude":21.0117209,"dict":{"addr:housenumber":"36","addr:street":"Chmielna"},"IsMarked":false},{"Id":"2742546841","ArrayIndex":3,"Latitude":52.2450078,"Longitude":20.9660513,"dict":{"addr:street":"Obozowa","addr:housenumber":"16"},"IsMarked":false},{"Id":"1602057090","ArrayIndex":4,"Latitude":52.241918,"Longitude":20.9946961,"dict":{"addr:street":"Aleja \"Solidarności\"","addr:housenumber":"115"},"IsMarked":false},{"Id":"2280581836","ArrayIndex":5,"Latitude":52.2454887,"Longitude":20.9485994,"dict":{"addr:street":"Deotymy","addr:housenumber":"56"},"IsMarked":false},{"Id":"1519897384","ArrayIndex":6,"Latitude":52.2524626,"Longitude":20.9881213,"dict":{"addr:street":"Dzika","addr:housenumber":"2"},"IsMarked":false},{"Id":"2718060163","ArrayIndex":7,"Latitude":52.2337373,"Longitude":21.0370721,"dict":{"addr:street":"Solec","addr:housenumber":"24"},"IsMarked":false},{"Id":"461166130","ArrayIndex":8,"Latitude":52.2394305,"Longitude":21.0631847,"dict":{"addr:housenumber":"68","addr:street":"Międzynarodowa"},"IsMarked":false},{"Id":"286604414","ArrayIndex":9,"Latitude":52.2472828,"Longitude":21.0568093,"dict":{"addr:housenumber":"338/340","addr:street":"Grochowska"},"IsMarked":false},{"Id":"2045098916","ArrayIndex":10,"Latitude":52.2483319,"Longitude":21.0712679,"dict":{"addr:street":"Terespolska","addr:housenumber":"4"},"IsMarked":false},{"Id":"344227170","ArrayIndex":11,"Latitude":52.2265671,"Longitude":21.0833715,"dict":{"addr:street":"Generała Romana Abrahama","addr:housenumber":"1"},"IsMarked":false},{"Id":"1838697149","ArrayIndex":12,"Latitude":52.1748849,"Longitude":21.0641149,"dict":{"addr:street":"Jana III Sobieskiego","addr:housenumber":"18"},"IsMarked":false},{"Id":"2587794348","ArrayIndex":13,"Latitude":52.2746229,"Longitude":21.0180429,"dict":{"addr:street":"Jagiellońska","addr:housenumber":"82"},"IsMarked":false},{"Id":"2464196087","ArrayIndex":14,"Latitude":52.2524057,"Longitude":21.0528603,"dict":{"addr:street":"Kijowska","addr:housenumber":"20"},"IsMarked":false},{"Id":"4340337897","ArrayIndex":15,"Latitude":52.2116522,"Longitude":21.0489507,"dict":{"addr:street":"Bartycka","addr:housenumber":"183"},"IsMarked":false},{"Id":"332432121","ArrayIndex":16,"Latitude":52.2263135,"Longitude":21.0966796,"dict":{"addr:street":"Złotej Wilgi","addr:housenumber":"2"},"IsMarked":false},{"Id":"1291371813","ArrayIndex":17,"Latitude":52.2354069,"Longitude":20.9372593,"dict":{"addr:street":"Jana Olbrachta","addr:housenumber":"46"},"IsMarked":false},{"Id":"4883853765","ArrayIndex":18,"Latitude":52.2876119,"Longitude":21.0218992,"dict":{"addr:street":"Piotra Wysockiego","addr:housenumber":"10"},"IsMarked":false},{"Id":"2289271903","ArrayIndex":19,"Latitude":52.2021417,"Longitude":20.9817687,"dict":{"addr:street":"Pruszkowska","addr:housenumber":"4D"},"IsMarked":false}]