[{"Id":"281900432","ArrayIndex":0,"Latitude":52.2230398,"Longitude":21.0430227,"dict":{"addr:street":"Łazienkowska","addr:housenumber":"6A"},"IsMarked":false},{"Id":"2025598202","ArrayIndex":1,"Latitude":52.2060879,"Longitude":21.1127524,"dict":{"addr:housenumber":"510","addr:street":"Wał Miedzeszyński"},"IsMarked":false},{"Id":"3790896635","ArrayIndex":2,"Latitude":52.2100166,"Longitude":21.0902876,"dict":{"addr:housenumber":"225","addr:street":"Wał Zawadowski"},"IsMarked":false},{"Id":"1809857793","ArrayIndex":3,"Latitude":52.2143362,"Longitude":21.0673668,"dict":{"addr:street":"Bartycka","addr:housenumber":"18A"},"IsMarked":false},{"Id":"4269044963","ArrayIndex":4,"Latitude":52.2216465,"Longitude":21.065637,"dict":{"addr:street":"Wał Miedzeszyński","addr:housenumber":"377"},"IsMarked":false},{"Id":"1034381367","ArrayIndex":5,"Latitude":52.2329755,"Longitude":21.0398535,"dict":{"addr:street":"Wioślarska","addr:housenumber":"6"},"IsMarked":false},{"Id":"339262923","ArrayIndex":6,"Latitude":52.2357461,"Longitude":21.0472515,"dict":{"addr:street":"Łotewska","addr:housenumber":"9A"},"IsMarked":false},{"Id":"2025961126","ArrayIndex":7,"Latitude":52.2449706,"Longitude":21.0216892,"dict":{"addr:housenumber":"2","addr:street":"Karowa"},"IsMarked":false},{"Id":"1789132202","ArrayIndex":8,"Latitude":52.2470933,"Longitude":21.0323142,"dict":{"addr:street":"Wybrzeże Szczecińskie","addr:housenumber":"6"},"IsMarked":false},{"Id":"3465766055","ArrayIndex":9,"Latitude":52.2417541,"Longitude":21.0290943,"dict":{"addr:street":"Wybrzeże Kościuszkowskie","addr:housenumber":"20"},"IsMarked":false}]