[{"Id":"2025224414","ArrayIndex":0,"Latitude":52.1507882,"Longitude":21.188138,"dict":{"addr:housenumber":"19","addr:street":"Wał Miedzeszyński"},"IsMarked":false},{"Id":"1292283074","ArrayIndex":1,"Latitude":52.1291349,"Longitude":21.0525805,"dict":{"addr:street":"Nowoczesna","addr:housenumber":"9"},"IsMarked":false},{"Id":"3999373460","ArrayIndex":2,"Latitude":52.2486953,"Longitude":20.9782504,"dict":{"addr:street":"Okopowa","addr:housenumber":"55A"},"IsMarked":false},{"Id":"2029055578","ArrayIndex":3,"Latitude":52.2725427,"Longitude":20.9886122,"dict":{"addr:street":"Mikołaja Gomółki","addr:housenumber":"16"},"IsMarked":false},{"Id":"2146100037","ArrayIndex":4,"Latitude":52.1547,"Longitude":20.93377,"dict":{"addr:housenumber":"33","addr:street":"Kasztanowa"},"IsMarked":false},{"Id":"2147352206","ArrayIndex":5,"Latitude":52.14842,"Longitude":21.18726,"dict":{"addr:housenumber":"24","addr:street":"Nadwiślańska"},"IsMarked":false},{"Id":"2025681847","ArrayIndex":6,"Latitude":52.3245556,"Longitude":21.0731651,"dict":{"addr:housenumber":"83","addr:street":"Leona Berensona"},"IsMarked":false},{"Id":"2190049788","ArrayIndex":7,"Latitude":52.3316,"Longitude":21.24805,"dict":{"addr:housenumber":"2","addr:street":"Kazimierzowska"},"IsMarked":false},{"Id":"2025209723","ArrayIndex":8,"Latitude":52.1528423,"Longitude":21.0234482,"dict":{"addr:housenumber":"17","addr:street":"Henryka Arctowskiego"},"IsMarked":false},{"Id":"2050107130","ArrayIndex":9,"Latitude":52.2839323,"Longitude":20.9509907,"dict":{"addr:street":"Bogumiła Zuga","addr:housenumber":"32A"},"IsMarked":false},{"Id":"2540141346","ArrayIndex":10,"Latitude":52.2424244,"Longitude":21.1062617,"dict":{"addr:street":"Augustyna Kordeckiego","addr:housenumber":"11"},"IsMarked":false},{"Id":"2025556717","ArrayIndex":11,"Latitude":52.2809058,"Longitude":21.0598765,"dict":{"addr:housenumber":"40a","addr:street":"Wojskowa"},"IsMarked":false},{"Id":"3980858488","ArrayIndex":12,"Latitude":52.2740486,"Longitude":21.0392717,"dict":{"addr:street":"Cmentarna","addr:housenumber":"24"},"IsMarked":false},{"Id":"312892911","ArrayIndex":13,"Latitude":52.2369252,"Longitude":21.0066961,"dict":{"addr:street":"Marszałkowska","addr:housenumber":"107"},"IsMarked":false},{"Id":"2025256816","ArrayIndex":14,"Latitude":52.1291702,"Longitude":21.0939372,"dict":{"addr:housenumber":"258","addr:street":"Zapłocie"},"IsMarked":false},{"Id":"342052062","ArrayIndex":15,"Latitude":52.2249247,"Longitude":21.0010815,"dict":{"addr:street":"Wojciecha Oczki","addr:housenumber":"4B"},"IsMarked":false},{"Id":"2025643171","ArrayIndex":16,"Latitude":52.2913064,"Longitude":21.0745965,"dict":{"addr:housenumber":"7","addr:street":"Knyszyńska"},"IsMarked":false},{"Id":"2147353547","ArrayIndex":17,"Latitude":52.10615,"Longitude":21.22573,"dict":{"addr:housenumber":"270","addr:street":"Nadwiślańska"},"IsMarked":false},{"Id":"3563287131","ArrayIndex":18,"Latitude":52.2280189,"Longitude":21.1078222,"dict":{"addr:street":"Mariana Pisarka","addr:housenumber":"9"},"IsMarked":false},{"Id":"268210764","ArrayIndex":19,"Latitude":52.1857161,"Longitude":20.8969548,"dict":{"addr:street":"Aleje Jerozolimskie","addr:housenumber":"244"},"IsMarked":false},{"Id":"2143615172","ArrayIndex":20,"Latitude":52.22667,"Longitude":21.25462,"dict":{"addr:housenumber":"88","addr:street":"Szklarniowa"},"IsMarked":false},{"Id":"3833212291","ArrayIndex":21,"Latitude":52.1823677,"Longitude":21.2078102,"dict":{"addr:street":"Radłowa","addr:housenumber":"30A"},"IsMarked":false},{"Id":"1348705852","ArrayIndex":22,"Latitude":52.1872303,"Longitude":21.062011,"dict":{"addr:street":"Powsińska","addr:housenumber":"31"},"IsMarked":false},{"Id":"2025575933","ArrayIndex":23,"Latitude":52.1930313,"Longitude":21.1923041,"dict":{"addr:street":"Ezopa","addr:housenumber":"46a"},"IsMarked":false},{"Id":"1502159214","ArrayIndex":24,"Latitude":52.2759457,"Longitude":21.0580227,"dict":{"addr:street":"Zamiejska","addr:housenumber":"15"},"IsMarked":false},{"Id":"2146100991","ArrayIndex":25,"Latitude":52.15669,"Longitude":20.92926,"dict":{"addr:housenumber":"47","addr:street":"Mieszka I"},"IsMarked":false},{"Id":"3420137743","ArrayIndex":26,"Latitude":52.2096811,"Longitude":20.9003706,"dict":{"addr:street":"Głubczycka","addr:housenumber":"34"},"IsMarked":false},{"Id":"2025634170","ArrayIndex":27,"Latitude":52.2645432,"Longitude":20.9156233,"dict":{"addr:housenumber":"63","addr:street":"Wojciecha Korfantego"},"IsMarked":false},{"Id":"2179313454","ArrayIndex":28,"Latitude":52.29985,"Longitude":21.10583,"dict":{"addr:housenumber":"10","addr:street":"Księdza Wacława Kuleszy"},"IsMarked":false},{"Id":"2025227097","ArrayIndex":29,"Latitude":52.1990735,"Longitude":21.1299617,"dict":{"addr:housenumber":"1B","addr:street":"Masłowiecka"},"IsMarked":false},{"Id":"2146100470","ArrayIndex":30,"Latitude":52.15586,"Longitude":20.95313,"dict":{"addr:housenumber":"4","addr:street":"Bratkowa"},"IsMarked":false},{"Id":"2025202120","ArrayIndex":31,"Latitude":52.1859804,"Longitude":21.1741813,"dict":{"addr:housenumber":"16","addr:street":"Lawendowa"},"IsMarked":false},{"Id":"2025218346","ArrayIndex":32,"Latitude":52.2311807,"Longitude":20.9246986,"dict":{"addr:housenumber":"18","addr:street":"Stroma"},"IsMarked":false},{"Id":"2093117676","ArrayIndex":33,"Latitude":52.2863757,"Longitude":21.0769744,"dict":{"addr:street":"Pszczyńska","addr:housenumber":"20a"},"IsMarked":false},{"Id":"3488945295","ArrayIndex":34,"Latitude":52.2305231,"Longitude":21.0159937,"dict":{"addr:street":"Krucza","addr:housenumber":"49"},"IsMarked":false},{"Id":"1629106104","ArrayIndex":35,"Latitude":52.3269941,"Longitude":21.0650172,"dict":{"addr:street":"Zaułek","addr:housenumber":"25"},"IsMarked":false},{"Id":"2025575660","ArrayIndex":36,"Latitude":52.1580634,"Longitude":21.2091773,"dict":{"addr:housenumber":"46","addr:street":"Włókiennicza"},"IsMarked":false},{"Id":"1111987066","ArrayIndex":37,"Latitude":52.2462194,"Longitude":21.0540473,"dict":{"addr:street":"Grochowska","addr:housenumber":"365A"},"IsMarked":false},{"Id":"2025695759","ArrayIndex":38,"Latitude":52.2404119,"Longitude":21.1251593,"dict":{"addr:housenumber":"9a","addr:street":"Gorzelnicza"},"IsMarked":false},{"Id":"3753940666","ArrayIndex":39,"Latitude":52.2158859,"Longitude":21.2366247,"dict":{"addr:street":"Jana Pawła II","addr:housenumber":"202"},"IsMarked":false}]